COSMOS 2576             
1 59773U 24092A   26068.82603826  .00015211  00000+0  56283-3 0  9991
2 59773  97.4253 186.0053 0005946 159.7731 200.3745 15.27760963101271
STARLINK-35218          
1 66340U 25253X   26068.44467991  .00025579  00000+0  93548-3 0  9991
2 66340  43.0018 214.1773 0001283 267.9968  92.0736 15.27591897 20208
